[
    {
        "CCSDS_OMM_VERS": "3.0",
        "COMMENT": "GENERATED VIA SPACE-TRACK.ORG API",
        "CREATION_DATE": "2025-03-02T18:08:23",
        "ORIGINATOR": "18 SPCS",
        "OBJECT_NAME": "COSMOS 2465 (GLONASS)",
        "OBJECT_ID": "2010-041B",
        "CENTER_NAME": "EARTH",
        "REF_FRAME": "TEME",
        "TIME_SYSTEM": "UTC",
        "MEAN_ELEMENT_THEORY": "SGP4",
        "EPOCH": "2025-03-02T13:10:16.791744",
        "MEAN_MOTION": "2.13098166",
        "ECCENTRICITY": "0.00403570",
        "INCLINATION": "63.9107",
        "RA_OF_ASC_NODE": "206.3943",
        "ARG_OF_PERICENTER": "178.2957",
        "MEAN_ANOMALY": "253.2871",
        "EPHEMERIS_TYPE": "0",
        "CLASSIFICATION_TYPE": "U",
        "NORAD_CAT_ID": "37138",
        "ELEMENT_SET_NO": "999",
        "REV_AT_EPOCH": "11281",
        "BSTAR": "0.00000000000000",
        "MEAN_MOTION_DOT": "0.00000054",
        "MEAN_MOTION_DDOT": "0.0000000000000",
        "SEMIMAJOR_AXIS": "25508.330",
        "PERIOD": "675.745",
        "APOAPSIS": "19233.139",
        "PERIAPSIS": "19027.251",
        "OBJECT_TYPE": "PAYLOAD",
        "RCS_SIZE": "LARGE",
        "COUNTRY_CODE": "CIS",
        "LAUNCH_DATE": "2010-09-02",
        "SITE": "TTMTR",
        "DECAY_DATE": null,
        "FILE": "4657142",
        "GP_ID": "282083159",
        "TLE_LINE0": "0 COSMOS 2465 (GLONASS)",
        "TLE_LINE1": "1 37138U 10041B   25061.54880546  .00000054  00000-0  00000-0 0  9991",
        "TLE_LINE2": "2 37138  63.9107 206.3943 0040357 178.2957 253.2871  2.13098166112812"
    }
]